FLOCK 4G-21             
1 62651U 25009AU  26068.19487675  .00013648  00000+0  49619-3 0  9998
2 62651  97.4032 151.1274 0000465 329.5782  30.5431 15.28381075 63677
STARLINK-34207          
1 64333U 25124S   26068.19702502  .00036165  00000+0  13170-2 0  9995
2 64333  42.9987 124.6182 0000907 246.0271 114.0486 15.27587909 41701
